NOAA 15                 
1 25338U 98030A   23200.35529846  .00000287  00000+0  13750-3 0  9995
2 25338  98.6040 228.8596 0009674 214.2434 145.8124 14.26354779309843
DMSP 5D-3 F15 (USA 147) 
1 25991U 99067A   23200.33884560  .00000224  00000+0  13489-3 0  9996
2 25991  99.0700 204.2411 0010728 138.8488 281.7115 14.16762619219982
DMSP 5D-3 F16 (USA 172) 
1 28054U 03048A   23200.44365966  .00000093  00000+0  73203-4 0  9994
2 28054  99.0122 198.9379 0006188 277.8107 241.1378 14.13824742 19119
NOAA 18                 
1 28654U 05018A   23200.35681062  .00000265  00000+0  16590-3 0  9993
2 28654  98.9090 274.5909 0013162 290.1835  69.7921 14.12971674936115
METEOSAT-9 (MSG-2)      
1 28912U 05049B   23199.85545443  .00000123  00000+0  00000+0 0  9996
2 28912   6.9163  63.5346 0002146 168.1719  58.4907  1.00279013 64402
EWS-G1 (GOES 13)        
1 29155U 06018A   23199.48090310  .00000033  00000+0  00000+0 0  9990
2 29155   1.6022  91.4632 0003893  94.4634 344.9422  1.00278426 62830
DMSP 5D-3 F17 (USA 191) 
1 29522U 06050A   23200.35233077  .00000112  00000+0  81584-4 0  9991
2 29522  98.7527 212.7127 0009373 205.4051 154.6662 14.14264930862001
FENGYUN 3A              
1 32958U 08026A   23200.36757231  .00000151  00000+0  92726-4 0  9990
2 32958  98.5566 153.0531 0008012 323.1499  36.9126 14.18890802784623
FENGYUN 2E              
1 33463U 08066A   23199.05586557 -.00000210  00000+0  00000+0 0  9996
2 33463   6.7880  62.7852 0000410 229.2685 110.4706  1.00275281 53417
NOAA 19                 
1 33591U 09005A   23200.40539268  .00000262  00000+0  16589-3 0  9990
2 33591  99.0975 246.8440 0014481 148.9439 211.2592 14.12788635744491
GOES 14                 
1 35491U 09033A   23199.53345420 -.00000066  00000+0  00000+0 0  9998
2 35491   0.4076 102.8002 0005156 341.7187 294.9824  1.00272552 51482
DMSP 5D-3 F18 (USA 210) 
1 35951U 09057A   23200.40433866  .00000327  00000+0  19554-3 0  9993
2 35951  98.7687 176.1388 0012000  41.5205 318.6877 14.13802738709197
GOES 15                 
1 36411U 10008A   23200.43477744 -.00000054  00000+0  00000+0 0  9999
2 36411   0.4335  95.3805 0001358  81.3329  89.6377  0.99990090 48989
COMS 1                  
1 36744U 10032A   23200.40604806 -.00000345  00000+0  00000+0 0  9996
2 36744   2.0811  88.3675 0000698  39.9758  82.8970  1.00271441 47981
FENGYUN 3B              
1 37214U 10059A   23200.47994181  .00000108  00000+0  80400-4 0  9996
2 37214  99.0827 218.3944 0021452 317.2307 205.0488 14.14356834657073
SUOMI NPP               
1 37849U 11061A   23200.39876767  .00000108  00000+0  71848-4 0  9990
2 37849  98.7047 138.5702 0001300 105.8618  43.2246 14.19547504607506
FENGYUN 2F              
1 38049U 12002A   23199.99632907 -.00000360  00000+0  00000+0 0  9996
2 38049   4.7639  76.3947 0002845  81.9834 248.7070  1.00282505 42213
METEOSAT-10 (MSG-3)     
1 38552U 12035B   23200.11358356 -.00000010  00000+0  00000+0 0  9993
2 38552   2.2373  56.4436 0000214   6.4416 274.1716  1.00273710 40540
METOP-B                 
1 38771U 12049A   23200.47583431  .00000178  00000+0  10111-3 0  9996
2 38771  98.6768 259.3083 0000918  91.7967 331.3720 14.21511904562133
FENGYUN 3C              
1 39260U 13052A   23200.39269799  .00000104  00000+0  73553-4 0  9993
2 39260  98.4276 212.8007 0010502 204.3943 155.6737 14.16054892508086
METEOR-M 2              
1 40069U 14037A   23200.38381431  .00000142  00000+0  85034-4 0  9992
2 40069  98.4233 204.8630 0004513 243.5283 116.5432 14.20794269468221
HIMAWARI-8              
1 40267U 14060A   23199.54954532 -.00000275  00000+0  00000+0 0  9994
2 40267   0.0164 358.3415 0000518 109.3022 166.9334  1.00272813 32182
FENGYUN 2G              
1 40367U 14090A   23199.99014619 -.00000304  00000+0  00000+0 0  9993
2 40367   2.9345  85.3375 0001381  85.2044 222.1075  1.00274609 31363
METEOSAT-11 (MSG-4)     
1 40732U 15034A   23200.26785394  .00000066  00000+0  00000+0 0  9990
2 40732   0.6460  47.0483 0000555  67.9521 287.8012  1.00280305 29340
ELEKTRO-L 2             
1 41105U 15074A   23200.03910652 -.00000118  00000+0  00000+0 0  9990
2 41105   3.9876  83.4814 0001674 107.7133 104.9562  1.00272406 27844
HIMAWARI-9              
1 41836U 16064A   23200.40049365 -.00000274  00000+0  00000+0 0  9999
2 41836   0.0181  58.3579 0001306 109.5096  54.0085  1.00267828 24632
GOES 16                 
1 41866U 16071A   23200.29069497 -.00000247  00000+0  00000+0 0  9995
2 41866   0.0550 233.0867 0000227 305.2692 147.9035  1.00272177 24433
FENGYUN 4A              
1 41882U 16077A   23200.00883028 -.00000330  00000+0  00000+0 0  9995
2 41882   0.0691  62.8242 0002238  89.1092 252.2591  1.00280222 24312
CYGFM05                 
1 41884U 16078A   23199.47975490  .00005779  00000+0  25844-3 0  9999
2 41884  34.9540 248.7487 0012790  42.8107 317.3600 15.20582376365107
CYGFM04                 
1 41885U 16078B   23199.51309763  .00005843  00000+0  25611-3 0  9993
2 41885  34.9467 235.3819 0011148  65.4629 294.7245 15.21280492365235
CYGFM02                 
1 41886U 16078C   23199.49413573  .00006354  00000+0  27849-3 0  9999
2 41886  34.9561 237.8439 0011929  57.8850 302.3019 15.21257253365227
CYGFM01                 
1 41887U 16078D   23200.45505191  .00005599  00000+0  25205-3 0  9991
2 41887  34.9507 245.7161 0013218  51.0965 309.0925 15.20362362365210
CYGFM08                 
1 41888U 16078E   23200.10892778  .00005277  00000+0  23374-3 0  9992
2 41888  34.9475 238.4988 0012233  63.3361 296.8603 15.20938091365228
CYGFM07                 
1 41890U 16078G   23200.11353927  .00005880  00000+0  25713-3 0  9993
2 41890  34.9487 231.2464 0010696  68.3160 291.8691 15.21366140365321
CYGFM03                 
1 41891U 16078H   23199.47232362  .00006201  00000+0  27253-3 0  9998
2 41891  34.9521 236.0815 0010331  59.5208 300.6525 15.21186338365217
FENGYUN 3D              
1 43010U 17072A   23200.42503513  .00000105  00000+0  71438-4 0  9997
2 43010  98.8628 149.0660 0001203 162.9333 197.1883 14.19183139294079
NOAA 20                 
1 43013U 17073A   23200.40461043  .00000075  00000+0  56120-4 0  9997
2 43013  98.7126 138.3702 0001446  68.9694 291.1636 14.19546369293546
GOES 17                 
1 43226U 18022A   23199.94948722 -.00000090  00000+0  00000+0 0  9997
2 43226   0.0088 284.7940 0002008 196.1588  52.6150  1.00272343 19761
FENGYUN 2H              
1 43491U 18050A   23199.48430253 -.00000128  00000+0  00000+0 0  9998
2 43491   2.1558  90.6693 0002905  80.6622  17.9704  1.00275925 18836
METOP-C                 
1 43689U 18087A   23200.42998426  .00000173  00000+0  99019-4 0  9997
2 43689  98.6814 259.4160 0002266 356.5410   3.5751 14.21508185243707
GEO-KOMPSAT-2A          
1 43823U 18100A   23200.41160542 -.00000343  00000+0  00000+0 0  9999
2 43823   0.0297 177.6270 0001844 286.7264 109.0108  1.00269544 16997
METEOR-M2 2             
1 44387U 19038A   23200.35730158  .00000048  00000+0  40498-4 0  9996
2 44387  98.7773 164.1997 0001242 151.1199 209.0048 14.23792742209883
FENGYUN 3E              
1 49008U 21062A   23200.43183276  .00000014  00000+0  27297-4 0  9998
2 49008  98.7219 201.3755 0000373 286.6124  73.5012 14.19688171105633
GOES 18                 
1 51850U 22021A   23200.34728122  .00000097  00000+0  00000+0 0  9996
2 51850   0.0101 285.6826 0000214 150.4259 208.7770  1.00274916  5133
NOAA 21 (JPSS-2)        
1 54234U 22150A   23199.43362846  .00000120  00000+0  77590-4 0  9992
2 54234  98.7166 136.8975 0001175  65.4364 294.6934 14.19563589 35486
METEOSAT-12             
1 54743U 22170C   23200.09632618 -.00000028  00000+0  00000+0 0  9996
2 54743   0.6536 311.4043 0002393 140.8626 235.7432  1.00274808  2306
METEOR-M2 3             
1 57166U 23091A   23200.39779236  .00000039  00000+0  36339-4 0  9992
2 57166  98.7631 252.1673 0004433  31.9262 328.2185 14.23834501  3120
